GPS BIIA-23 (PRN 18)    
1 22877U 93068A   19124.03560601 -.00000035  00000-0  00000+0 0  9998
2 22877  54.6558  70.3590 0150522  79.2322 151.4471  2.00559760186984
GPS BIIR-2  (PRN 13)    
1 24876U 97035A   19124.60921236  .00000046  00000-0  00000+0 0  9996
2 24876  55.4602 200.1723 0033361  74.2266 286.2150  2.00564712159599
GPS BIIR-3  (PRN 11)    
1 25933U 99055A   19124.03089719 -.00000069  00000-0  00000+0 0  9999
2 25933  52.0992  47.7450 0163855 108.0011 121.4524  2.00560025143396
GPS BIIR-4  (PRN 20)    
1 26360U 00025A   19124.25346222  .00000065  00000-0  00000+0 0  9997
2 26360  53.3194 126.2692 0042133 136.8702 299.9377  2.00561784139093
GPS BIIR-5  (PRN 28)    
1 26407U 00040A   19124.44077201 -.00000032  00000-0  00000+0 0  9990
2 26407  56.2884 318.3053 0192707 275.9197 269.8557  2.00560640137773
GPS BIIR-6  (PRN 14)    
1 26605U 00071A   19124.25374837  .00000047  00000-0  00000+0 0  9993
2 26605  55.0344 197.6514 0107596 249.1731  73.3997  2.00560867135371
GPS BIIR-8  (PRN 16)    
1 27663U 03005A   19124.26657417 -.00000031  00000-0  00000+0 0  9991
2 27663  56.3491 318.0843 0106942  31.7030 147.8804  2.00576492119139
GPS BIIR-9  (PRN 21)    
1 27704U 03010A   19124.43806902 -.00000035  00000-0  00000+0 0  9991
2 27704  54.3308  69.8257 0249081 277.0034 351.8014  2.00554946117948
GPS BIIR-10 (PRN 22)    
1 28129U 03058A   19124.30144839  .00000068  00000-0  00000+0 0  9990
2 28129  53.1314 129.0602 0074706 281.8607  77.3349  2.00546708112646
GPS BIIR-11 (PRN 19)    
1 28190U 04009A   19124.06577137 -.00000072  00000-0  00000+0 0  9995
2 28190  56.2601  18.8736 0093444  79.4208 109.2710  2.00568825110816
GPS BIIR-12 (PRN 23)    
1 28361U 04023A   19124.30074229  .00000053  00000-0  00000+0 0  9990
2 28361  54.0477 192.0624 0133376 230.8009  40.8522  2.00572621108890
GPS BIIR-13 (PRN 02)    
1 28474U 04045A   19124.31038811 -.00000036  00000-0  00000+0 0  9999
2 28474  54.6895  69.5663 0191491 260.1662  20.4732  2.00560437106267
GPS BIIRM-1 (PRN 17)    
1 28874U 05038A   19124.16951797 -.00000071  00000-0  00000+0 0  9995
2 28874  56.3852  16.2168 0130806 262.1183  22.4424  2.00556925 99667
GPS BIIRM-2 (PRN 31)    
1 29486U 06042A   19124.39805112 -.00000014  00000-0  00000+0 0  9992
2 29486  55.0188 254.7941 0092045 358.7949  12.5205  2.00571552 92389
GPS BIIRM-3 (PRN 12)    
1 29601U 06052A   19123.83052601 -.00000031  00000-0  00000+0 0  9996
2 29601  56.3291 317.0180 0074434  60.6614 300.0993  2.00566394 91280
GPS BIIRM-4 (PRN 15)    
1 32260U 07047A   19124.14155836  .00000056  00000-0  00000+0 0  9991
2 32260  53.1708 187.7980 0111182  43.4129 317.5452  2.00562515 84663
GPS BIIRM-5 (PRN 29)    
1 32384U 07062A   19124.38215594 -.00000070  00000-0  00000+0 0  9996
2 32384  56.4684  16.8447 0007751  95.0219 215.3876  2.00554003 83407
GPS BIIRM-6 (PRN 07)    
1 32711U 08012A   19123.54812890 -.00000021  00000-0  00000+0 0  9991
2 32711  54.7585 254.0285 0127716 219.3159 139.7245  2.00553614 81578
GPS BIIRM-8 (PRN 05)    
1 35752U 09043A   19123.76309189  .00000075  00000-0  00000-0 0  9999
2 35752  54.4150 131.6996 0054566  38.4815 140.9522  2.00562843 71183
GPS BIIF-1  (PRN 25)    
1 36585U 10022A   19124.38416810 -.00000031  00000-0  00000+0 0  9994
2 36585  55.6093 313.3276 0082590  50.0497 320.6391  2.00558519 65427
GPS BIIF-2  (PRN 01)    
1 37753U 11036A   19124.25497178 -.00000028  00000-0  00000+0 0  9996
2 37753  55.8869  73.4790 0086096  38.7246 325.4768  2.00566069 57109
GPS BIIF-3  (PRN 24)    
1 38833U 12053A   19123.23857772 -.00000024  00000-0  00000-0 0  9990
2 38833  53.7930 250.2864 0081582  33.4700 327.0172  2.00557946 47362
GPS BIIF-4  (PRN 27)    
1 39166U 13023A   19124.09601761 -.00000070  00000-0  00000+0 0  9998
2 39166  56.0688  13.0096 0069548  25.6292 334.7609  2.00567938 43703
GPS BIIF-5  (PRN 30)    
1 39533U 14008A   19123.59171693 -.00000023  00000-0  00000-0 0  9999
2 39533  53.9255 255.6616 0040016 192.1543 167.7211  2.00572315 37528
GPS BIIF-6  (PRN 06)    
1 39741U 14026A   19123.37930748 -.00000030  00000-0  00000+0 0  9997
2 39741  55.8664  73.0392 0017998 293.7794  66.0038  2.00575524 36337
GPS BIIF-7  (PRN 09)    
1 40105U 14045A   19123.96848566  .00000051  00000-0  00000+0 0  9997
2 40105  54.5741 192.3560 0010371 103.2332 256.9639  2.00561910 34797
GPS BIIF-8  (PRN 03)    
1 40294U 14068A   19124.33138684  .00000077  00000-0  00000+0 0  9994
2 40294  55.1671 133.1961 0020045  27.6616 332.4863  2.00549036 33025
GPS BIIF-9  (PRN 26)    
1 40534U 15013A   19123.47898147 -.00000034  00000-0  00000-0 0  9998
2 40534  54.5390 311.7521 0037063   6.1687 353.8861  2.00572540 29641
GPS BIIF-10  (PRN 08)   
1 40730U 15033A   19124.13545641 -.00000071  00000-0  00000+0 0  9990
2 40730  55.5941  12.3680 0044737 342.9109  16.9863  2.00557095 27845
GPS BIIF-11  (PRN 10)   
1 41019U 15062A   19124.18463789  .00000077  00000-0  00000+0 0  9995
2 41019  55.1686 133.0164 0046274 208.1368 151.6539  2.00564744 25668
GPS BIIF-12  (PRN 32)   
1 41328U 16007A   19123.78240865  .00000050  00000-0  00000+0 0  9992
2 41328  54.8186 192.7410 0031293 219.1659 140.6870  2.00573887 23716
